GPS BIIR-08             
1 27663U 03005A   26064.15638334  .00000007  00000+0  00000+0 0  9998
2 27663  54.9072 219.0997 0148735  52.7224 131.3819  2.00566245169226
GPS BIIR-11             
1 28190U 04009A   26063.42812631 -.00000020  00000+0  00000+0 0  9998
2 28190  54.9157 279.9188 0110961 169.0670   5.0968  2.00558098160848
GPS BIIR-13             
1 28474U 04045A   26064.14636715 -.00000094  00000+0  00000+0 0  9991
2 28474  55.1943 329.0893 0170840 312.8581  83.3458  2.00573460156343
GPS BIIR-14M            
1 28874U 05038A   26063.66238218 -.00000018  00000+0  00000+0 0  9996
2 28874  54.9628 277.3946 0128798 295.3469  71.7592  2.00572995149741
METEOSAT-9 (MSG-2)      
1 28912U 05049B   26064.07544802  .00000118  00000+0  00000+0 0  9996
2 28912   9.1265  55.1755 0001712 222.7266 317.8188  1.00277671  5959
GPS BIIR-16M            
1 29601U 06052A   26063.71240001  .00000002  00000+0  00000+0 0  9993
2 29601  54.9572 218.1449 0087863  89.3643 271.5921  2.00551664141312
GPS BIIR-17M            
1 32260U 07047A   26064.01919554 -.00000008  00000+0  00000+0 0  9990
2 32260  54.0162  84.3580 0163608  85.9640 275.9610  2.00560713134728
GPS BIIR-18M            
1 32384U 07062A   26064.08231703 -.00000020  00000+0  00000+0 0  9998
2 32384  55.1143 278.3362 0032945 160.6669  12.9552  2.00553591133426
GOES 14                 
1 35491U 09033A   26064.26651062  .00000119  00000+0  00000+0 0  9992
2 35491   1.4211  84.4101 0002301 300.2805  75.6316  1.00124871  5552
GOES 15                 
1 36411U 10008A   26064.18725389  .00000013  00000+0  00000+0 0  9997
2 36411   1.0108  85.1296 0001932  19.6467 189.0339  1.00269479 58594
GSAT0101 (GALILEO-PFM)  
1 37846U 11060A   26053.46432651 -.00000082  00000+0  00000+0 0  9992
2 37846  57.0318 344.8758 0003975 357.0591   2.9533  1.70475478 89166
GSAT0102 (GALILEO-FM2)  
1 37847U 11060B   26060.06318653 -.00000106  00000+0  00000+0 0  9999
2 37847  57.0301 344.6971 0005422 341.2092 154.1953  1.70475778 89286
LUCH 5A                 
1 37951U 11074B   26064.33107759 -.00000052  00000+0  00000+0 0  9997
2 37951   8.4896  75.3323 0003940 246.4395 127.5868  1.00275710 52012
METEOSAT-10 (MSG-3)     
1 38552U 12035B   26064.22673045 -.00000011  00000+0  00000+0 0  9992
2 38552   4.4256  61.4601 0002511 296.4567 246.9694  1.00277685 49810
SARSAT 13 (METOP-B)     
1 38771U 12049A   26064.22157406  .00000172  00000+0  98496-4 0  9996
2 38771  98.6651 117.7299 0001200 290.4699  69.6349 14.21443047698494
GPS BIIF-3              
1 38833U 12053A   26063.11837641  .00000006  00000+0  00000+0 0  9998
2 38833  53.5658 147.9052 0176935  64.7808 297.0848  2.00565801 97338
GSAT0103 (GALILEO-FM3)  
1 38857U 12055A   26063.47673480  .00000012  00000+0  00000+0 0  9991
2 38857  55.7384 104.4182 0005407 285.3640  74.6606  1.70473427 83228
GPS BIIF-4              
1 39166U 13023A   26063.98037619 -.00000016  00000+0  00000+0 0  9990
2 39166  54.5857 273.2171 0141620  49.9246 311.3385  2.00564217 93791
INSAT-3D                
1 39216U 13038B   26064.26016903 -.00000347  00000+0  00000+0 0  9994
2 39216   1.6576  83.9021 0001733 243.9670  58.2745  1.00273114 46039
GPS BIIF-5              
1 39533U 14008A   26062.98170139  .00000002  00000+0  00000+0 0  9990
2 39533  53.6377 153.6123 0082291 228.2820 131.0416  2.00553063 87570
LUCH 5V                 
1 39727U 14023A   26064.03146958 -.00000276  00000+0  00000+0 0  9996
2 39727   4.8765  70.7693 0003024 280.3184 277.7436  1.00271609 43310
GPS BIIF-6              
1 39741U 14026A   26063.75840403 -.00000098  00000+0  00000+0 0  9991
2 39741  56.5463 335.5859 0039864 324.5417  35.2288  2.00568672 86445
GPS BIIF-7              
1 40105U 14045A   26063.84593997  .00000005  00000+0  00000+0 0  9998
2 40105  55.2815  92.6206 0031507 120.4743 239.9033  2.00551558 83988
GSAT0201 (GALILEO 5)    
1 40128U 14050A   26062.23675925 -.00000027  00000+0  00000+0 0  9998
2 40128  48.9889 277.7718 1657553 175.2875 186.5034  1.85520013 76352
GSAT0202 (GALILEO 6)    
1 40129U 14050B   26061.95370111 -.00000024  00000+0  00000+0 0  9993
2 40129  49.0058 276.8679 1658464 176.0142 185.5046  1.85520711 78514
GPS BIIF-8              
1 40294U 14068A   26064.22260263 -.00000079  00000+0  00000+0 0  9994
2 40294  56.9201  34.9602 0062818  68.0542 292.5966  2.00569928 83122
GLONASS-K 2             
1 40315U 14075A   26060.84023701 -.00000015  00000+0  00000+0 0  9994
2 40315  63.6170 194.0851 0020735 205.7160 154.1408  2.13101099 87569
GPS BIIF-9              
1 40534U 15013A   26063.85539188  .00000000  00000+0  00000+0 0  9998
2 40534  53.1862 208.4909 0108743  39.7896 320.9490  2.00557620 79730
GSAT0203 (GALILEO 7)    
1 40544U 15017A   26058.52158611 -.00000103  00000+0  00000+0 0  9994
2 40544  56.8234 344.5881 0005161 295.0116  64.9415  1.70475495 67337
GSAT0204 (GALILEO 8)    
1 40545U 15017B   26058.19060141 -.00000102  00000+0  00000+0 0  9997
2 40545  56.8295 344.6151 0004389 286.3298  73.6287  1.70475370 30371
GPS BIIF-10             
1 40730U 15033A   26064.01591824 -.00000015  00000+0  00000+0 0  9999
2 40730  54.0642 271.3797 0114513  28.9911 331.6658  2.00561592 77903
METEOSAT-11 (MSG-4)     
1 40732U 15034A   26064.22855046  .00000054  00000+0  00000+0 0  9996
2 40732   2.9396  71.6758 0001804 270.6915 272.2545  1.00266359  6177
GSAT0205 (GALILEO 9)    
1 40889U 15045A   26043.95434207  .00000078  00000+0  00000+0 0  9996
2 40889  53.6403 225.6057 0359599  59.9658 303.5577  1.67410800 64211
GSAT0206 (GALILEO 10)   
1 40890U 15045B   26061.69895769  .00000010  00000+0  00000+0 0  9999
2 40890  54.9811 224.5416 0003832  50.0037 309.9714  1.70473640 65226
GPS BIIF-11             
1 41019U 15062A   26063.57615744 -.00000079  00000+0  00000+0 0  9990
2 41019  56.8930  34.8413 0111453 231.4983 127.4850  2.00567082 75735
ELEKTRO-L 2             
1 41105U 15074A   26064.29511076 -.00000123  00000+0  00000+0 0  9992
2 41105   6.4333  71.8021 0003413 238.5441 304.4140  1.00270976 37467
GSAT0209 (GALILEO 12)   
1 41174U 15079A   26063.04029836  .00000013  00000+0  00000+0 0  9990
2 41174  55.7590 104.1453 0004747 323.4357  36.6173  1.70474529 62987
GSAT0208 (GALILEO 11)   
1 41175U 15079B   26062.08735472  .00000015  00000+0  00000+0 0  9996
2 41175  55.7569 104.1685 0004163 323.7694  36.2890  1.70474318 63383
GPS BIIF-12             
1 41328U 16007A   26064.16012979  .00000004  00000+0  00000+0 0  9997
2 41328  55.4561  93.5827 0095453 246.0235 113.0379  2.00556727 73758
GSAT0211 (GALILEO 14)   
1 41549U 16030A   26061.62472216  .00000011  00000+0  00000+0 0  9998
2 41549  55.1322 224.6224 0003631  25.7212 334.2388  1.70473766 60858
GSAT0210 (GALILEO 13)   
1 41550U 16030B   26063.64174297  .00000012  00000+0  00000+0 0  9993
2 41550  55.1287 224.5652 0001197 194.9526 164.9809  1.70473947 60886
INSAT-3DR               
1 41752U 16054A   26064.06333017 -.00000086  00000+0  00000+0 0  9999
2 41752   0.0489  96.2317 0013197 185.6547 337.6931  1.00272506 34773
GSAT0207 (GALILEO 15)   
1 41859U 16069A   26059.22748061  .00000008  00000+0  00000+0 0  9997
2 41859  55.4267 104.1007 0005031 309.1503  50.8842  1.70474383 57546
GSAT0212 (GALILEO 16)   
1 41860U 16069B   26062.01395955  .00000014  00000+0  00000+0 0  9997
2 41860  55.4261 104.0186 0003622 335.7588  24.3106  1.70474657 57847
GSAT0213 (GALILEO 17)   
1 41861U 16069C   26058.27531726  .00000004  00000+0  00000+0 0  9998
2 41861  55.4260 104.1303 0005130 291.6331  68.3872  1.70474834 57644
GSAT0214 (GALILEO 18)   
1 41862U 16069D   26059.00795760  .00000007  00000+0  00000+0 0  9994
2 41862  55.4250 104.1026 0004132 296.1582  63.8775  1.70474701 57785
GOES 16                 
1 41866U 16071A   26064.27725734 -.00000099  00000+0  00000+0 0  9992
2 41866   0.1401  89.6705 0002464 221.2947 207.1543  1.00271815 34061
GSAT-17                 
1 42815U 17040B   26064.00277631 -.00000267  00000+0  00000+0 0  9990
2 42815   0.0397 299.9445 0004980 347.8839 329.4053  1.00269919 31744
GSAT0215 (GALILEO 19)   
1 43055U 17079A   26062.43085966  .00000010  00000+0  00000+0 0  9997
2 43055  55.1080 224.4135 0000631  13.1955 346.7446  1.70474475 51181
GSAT0216 (GALILEO 20)   
1 43056U 17079B   26060.96235113  .00000013  00000+0  00000+0 0  9998
2 43056  55.1088 224.4540 0001688 322.1798  37.7539  1.70474524 51175
GSAT0217 (GALILEO 21)   
1 43057U 17079C   26062.35625513  .00000009  00000+0  00000+0 0  9996
2 43057  55.1084 224.4135 0002106 356.8681   3.0693  1.70474491 51184
GSAT0218 (GALILEO 22)   
1 43058U 17079D   26063.74946031  .00000013  00000+0  00000+0 0  9997
2 43058  55.1048 224.3730 0001921 303.9467  55.9718  1.70474529 51236
GOES 17                 
1 43226U 18022A   26064.20896369 -.00000191  00000+0  00000+0 0  9991
2 43226   0.6702  87.5386 0002204 223.0782 198.0411  1.00270294 29384
GSAT0221 (GALILEO 25)   
1 43564U 18060A   26059.54670036 -.00000105  00000+0  00000+0 0  9995
2 43564  57.2051 344.7173 0005804 306.7848  53.1689  1.70475369 47315
GSAT0222 (GALILEO 26)   
1 43565U 18060B   26055.66007047 -.00000092  00000+0  00000+0 0  9996
2 43565  57.2093 344.8256 0004435 285.4820  74.4799  1.70474973 47292
GSAT0219 (GALILEO 23)   
1 43566U 18060C   26053.53475141 -.00000082  00000+0  00000+0 0  9994
2 43566  57.2094 344.8846 0005774 308.6957  51.2673  1.70475208 47235
GSAT0220 (GALILEO 24)   
1 43567U 18060D   26058.44840234 -.00000102  00000+0  00000+0 0  9992
2 43567  57.2075 344.7516 0005301 308.5821  51.3768  1.70475159 47302
BEIDOU-3 M13            
1 43622U 18072A   26063.82956810 -.00000029  00000+0  00000+0 0  9991
2 43622  56.5333  66.1018 0008916 307.8246  52.1164  1.86230808 50718
BEIDOU-3 M14            
1 43623U 18072B   26063.69502611 -.00000028  00000+0  00000+0 0  9992
2 43623  56.5350  66.1003 0006376 328.8150  31.1695  1.86230841 50709
